{"type":"FeatureCollection","features":[{"type":"Feature","geometry":{"type":"Point","coordinates":[-120.0098,38.79725]},"properties":{"acq_utc":"2026-10-10T12:19:00Z","satellite":"Aqua","instrument":"MODIS","source":"MODIS_NRT","confidence":"54","confidence_label":"nominal","frp_mw":9.91,"daynight":"N","is_vegetation_fire":true}},{"type":"Feature","geometry":{"type":"Point","coordinates":[-120.01488,38.79859]},"properties":{"acq_utc":"2026-10-10T11:17:00Z","satellite":"N","instrument":"VIIRS","source":"VIIRS_SNPP_NRT","confidence":"n","confidence_label":"nominal","frp_mw":5.16,"daynight":"N","is_vegetation_fire":true}},{"type":"Feature","geometry":{"type":"Point","coordinates":[-120.01503,38.79657]},"properties":{"acq_utc":"2026-10-10T10:41:00Z","satellite":"N21","instrument":"VIIRS","source":"VIIRS_NOAA21_NRT","confidence":"n","confidence_label":"nominal","frp_mw":5.95,"daynight":"N","is_vegetation_fire":true}},{"type":"Feature","geometry":{"type":"Point","coordinates":[-121.93265,37.45668]},"properties":{"acq_utc":"2026-10-10T10:41:00Z","satellite":"N21","instrument":"VIIRS","source":"VIIRS_NOAA21_NRT","confidence":"n","confidence_label":"nominal","frp_mw":0.41,"daynight":"N","is_vegetation_fire":true}},{"type":"Feature","geometry":{"type":"Point","coordinates":[-121.93198,37.45259]},"properties":{"acq_utc":"2026-10-10T10:41:00Z","satellite":"N21","instrument":"VIIRS","source":"VIIRS_NOAA21_NRT","confidence":"n","confidence_label":"nominal","frp_mw":0.63,"daynight":"N","is_vegetation_fire":true}},{"type":"Feature","geometry":{"type":"Point","coordinates":[-120.01899,38.79763]},"properties":{"acq_utc":"2026-10-10T10:41:00Z","satellite":"N21","instrument":"VIIRS","source":"VIIRS_NOAA21_NRT","confidence":"n","confidence_label":"nominal","frp_mw":5.0,"daynight":"N","is_vegetation_fire":true}},{"type":"Feature","geometry":{"type":"Point","coordinates":[-118.19484,34.15387]},"properties":{"acq_utc":"2026-10-10T09:58:00Z","satellite":"N20","instrument":"VIIRS","source":"VIIRS_NOAA20_NRT","confidence":"n","confidence_label":"nominal","frp_mw":1.4,"daynight":"N","is_vegetation_fire":true}},{"type":"Feature","geometry":{"type":"Point","coordinates":[-118.36815,35.12127]},"properties":{"acq_utc":"2026-10-10T09:58:00Z","satellite":"N20","instrument":"VIIRS","source":"VIIRS_NOAA20_NRT","confidence":"n","confidence_label":"nominal","frp_mw":1.04,"daynight":"N","is_vegetation_fire":true}},{"type":"Feature","geometry":{"type":"Point","coordinates":[-118.5184,34.33515]},"properties":{"acq_utc":"2026-10-10T09:58:00Z","satellite":"N20","instrument":"VIIRS","source":"VIIRS_NOAA20_NRT","confidence":"n","confidence_label":"nominal","frp_mw":0.73,"daynight":"N","is_vegetation_fire":true}},{"type":"Feature","geometry":{"type":"Point","coordinates":[-119.68125,36.18233]},"properties":{"acq_utc":"2026-10-10T09:58:00Z","satellite":"N20","instrument":"VIIRS","source":"VIIRS_NOAA20_NRT","confidence":"n","confidence_label":"nominal","frp_mw":1.28,"daynight":"N","is_vegetation_fire":true}},{"type":"Feature","geometry":{"type":"Point","coordinates":[-114.93545,32.54008]},"properties":{"acq_utc":"2026-10-10T09:58:00Z","satellite":"N20","instrument":"VIIRS","source":"VIIRS_NOAA20_NRT","confidence":"n","confidence_label":"nominal","frp_mw":5.99,"daynight":"N","is_vegetation_fire":true}},{"type":"Feature","geometry":{"type":"Point","coordinates":[-114.93661,32.53609]},"properties":{"acq_utc":"2026-10-10T09:58:00Z","satellite":"N20","instrument":"VIIRS","source":"VIIRS_NOAA20_NRT","confidence":"n","confidence_label":"nominal","frp_mw":0.63,"daynight":"N","is_vegetation_fire":true}},{"type":"Feature","geometry":{"type":"Point","coordinates":[-120.13498,36.66354]},"properties":{"acq_utc":"2026-10-10T09:58:00Z","satellite":"N20","instrument":"VIIRS","source":"VIIRS_NOAA20_NRT","confidence":"n","confidence_label":"nominal","frp_mw":0.66,"daynight":"N","is_vegetation_fire":true}},{"type":"Feature","geometry":{"type":"Point","coordinates":[-120.93093,38.02917]},"properties":{"acq_utc":"2026-10-10T09:56:00Z","satellite":"N20","instrument":"VIIRS","source":"VIIRS_NOAA20_NRT","confidence":"n","confidence_label":"nominal","frp_mw":0.59,"daynight":"N","is_vegetation_fire":true}},{"type":"Feature","geometry":{"type":"Point","coordinates":[-121.18475,37.88458]},"properties":{"acq_utc":"2026-10-10T09:56:00Z","satellite":"N20","instrument":"VIIRS","source":"VIIRS_NOAA20_NRT","confidence":"n","confidence_label":"nominal","frp_mw":1.42,"daynight":"N","is_vegetation_fire":true}},{"type":"Feature","geometry":{"type":"Point","coordinates":[-121.93471,37.45717]},"properties":{"acq_utc":"2026-10-10T09:56:00Z","satellite":"N20","instrument":"VIIRS","source":"VIIRS_NOAA20_NRT","confidence":"n","confidence_label":"nominal","frp_mw":0.28,"daynight":"N","is_vegetation_fire":true}},{"type":"Feature","geometry":{"type":"Point","coordinates":[-119.58662,37.60709]},"properties":{"acq_utc":"2026-10-10T09:56:00Z","satellite":"N20","instrument":"VIIRS","source":"VIIRS_NOAA20_NRT","confidence":"n","confidence_label":"nominal","frp_mw":0.67,"daynight":"N","is_vegetation_fire":true}},{"type":"Feature","geometry":{"type":"Point","coordinates":[-121.99356,37.49323]},"properties":{"acq_utc":"2026-10-10T09:56:00Z","satellite":"N20","instrument":"VIIRS","source":"VIIRS_NOAA20_NRT","confidence":"n","confidence_label":"nominal","frp_mw":0.14,"daynight":"N","is_vegetation_fire":true}},{"type":"Feature","geometry":{"type":"Point","coordinates":[-120.01551,38.798]},"properties":{"acq_utc":"2026-10-10T09:56:00Z","satellite":"N20","instrument":"VIIRS","source":"VIIRS_NOAA20_NRT","confidence":"n","confidence_label":"nominal","frp_mw":8.31,"daynight":"N","is_vegetation_fire":true}},{"type":"Feature","geometry":{"type":"Point","coordinates":[-121.68137,37.18327]},"properties":{"acq_utc":"2026-10-10T09:56:00Z","satellite":"N20","instrument":"VIIRS","source":"VIIRS_NOAA20_NRT","confidence":"n","confidence_label":"nominal","frp_mw":0.52,"daynight":"N","is_vegetation_fire":true}},{"type":"Feature","geometry":{"type":"Point","coordinates":[-120.87055,36.97272]},"properties":{"acq_utc":"2026-10-10T09:56:00Z","satellite":"N20","instrument":"VIIRS","source":"VIIRS_NOAA20_NRT","confidence":"n","confidence_label":"nominal","frp_mw":0.45,"daynight":"N","is_vegetation_fire":true}},{"type":"Feature","geometry":{"type":"Point","coordinates":[-114.87523,36.38446]},"properties":{"acq_utc":"2026-10-10T09:56:00Z","satellite":"N20","instrument":"VIIRS","source":"VIIRS_NOAA20_NRT","confidence":"n","confidence_label":"nominal","frp_mw":0.88,"daynight":"N","is_vegetation_fire":true}},{"type":"Feature","geometry":{"type":"Point","coordinates":[-114.9148,36.35704]},"properties":{"acq_utc":"2026-10-10T09:56:00Z","satellite":"N20","instrument":"VIIRS","source":"VIIRS_NOAA20_NRT","confidence":"n","confidence_label":"nominal","frp_mw":1.47,"daynight":"N","is_vegetation_fire":true}},{"type":"Feature","geometry":{"type":"Point","coordinates":[-114.9136,36.35678]},"properties":{"acq_utc":"2026-10-10T09:56:00Z","satellite":"N20","instrument":"VIIRS","source":"VIIRS_NOAA20_NRT","confidence":"n","confidence_label":"nominal","frp_mw":1.9,"daynight":"N","is_vegetation_fire":true}},{"type":"Feature","geometry":{"type":"Point","coordinates":[-114.90913,36.35592]},"properties":{"acq_utc":"2026-10-10T09:56:00Z","satellite":"N20","instrument":"VIIRS","source":"VIIRS_NOAA20_NRT","confidence":"n","confidence_label":"nominal","frp_mw":0.88,"daynight":"N","is_vegetation_fire":true}},{"type":"Feature","geometry":{"type":"Point","coordinates":[-121.83443,38.31428]},"properties":{"acq_utc":"2026-10-10T09:56:00Z","satellite":"N20","instrument":"VIIRS","source":"VIIRS_NOAA20_NRT","confidence":"n","confidence_label":"nominal","frp_mw":0.38,"daynight":"N","is_vegetation_fire":true}},{"type":"Feature","geometry":{"type":"Point","coordinates":[-121.39719,39.07653]},"properties":{"acq_utc":"2026-10-10T09:56:00Z","satellite":"N20","instrument":"VIIRS","source":"VIIRS_NOAA20_NRT","confidence":"n","confidence_label":"nominal","frp_mw":0.36,"daynight":"N","is_vegetation_fire":true}},{"type":"Feature","geometry":{"type":"Point","coordinates":[-114.25772,40.82122]},"properties":{"acq_utc":"2026-10-10T09:56:00Z","satellite":"N20","instrument":"VIIRS","source":"VIIRS_NOAA20_NRT","confidence":"n","confidence_label":"nominal","frp_mw":1.72,"daynight":"N","is_vegetation_fire":true}},{"type":"Feature","geometry":{"type":"Point","coordinates":[-119.26528,39.62025]},"properties":{"acq_utc":"2026-10-10T09:56:00Z","satellite":"N20","instrument":"VIIRS","source":"VIIRS_NOAA20_NRT","confidence":"n","confidence_label":"nominal","frp_mw":0.98,"daynight":"N","is_vegetation_fire":true}},{"type":"Feature","geometry":{"type":"Point","coordinates":[-114.87815,36.38263]},"properties":{"acq_utc":"2026-10-10T09:37:00Z","satellite":"N","instrument":"VIIRS","source":"VIIRS_SNPP_NRT","confidence":"n","confidence_label":"nominal","frp_mw":0.9,"daynight":"N","is_vegetation_fire":true}},{"type":"Feature","geometry":{"type":"Point","coordinates":[-116.13669,33.10381]},"properties":{"acq_utc":"2026-10-10T09:37:00Z","satellite":"N","instrument":"VIIRS","source":"VIIRS_SNPP_NRT","confidence":"n","confidence_label":"nominal","frp_mw":1.06,"daynight":"N","is_vegetation_fire":true}},{"type":"Feature","geometry":{"type":"Point","coordinates":[-121.93142,37.45439]},"properties":{"acq_utc":"2026-10-10T09:37:00Z","satellite":"N","instrument":"VIIRS","source":"VIIRS_SNPP_NRT","confidence":"n","confidence_label":"nominal","frp_mw":0.87,"daynight":"N","is_vegetation_fire":true}},{"type":"Feature","geometry":{"type":"Point","coordinates":[-118.1933,34.15395]},"properties":{"acq_utc":"2026-10-10T09:37:00Z","satellite":"N","instrument":"VIIRS","source":"VIIRS_SNPP_NRT","confidence":"n","confidence_label":"nominal","frp_mw":1.1,"daynight":"N","is_vegetation_fire":true}},{"type":"Feature","geometry":{"type":"Point","coordinates":[-117.42932,34.14426]},"properties":{"acq_utc":"2026-10-10T09:37:00Z","satellite":"N","instrument":"VIIRS","source":"VIIRS_SNPP_NRT","confidence":"n","confidence_label":"nominal","frp_mw":0.68,"daynight":"N","is_vegetation_fire":true}},{"type":"Feature","geometry":{"type":"Point","coordinates":[-117.42757,34.14205]},"properties":{"acq_utc":"2026-10-10T09:37:00Z","satellite":"N","instrument":"VIIRS","source":"VIIRS_SNPP_NRT","confidence":"n","confidence_label":"nominal","frp_mw":0.74,"daynight":"N","is_vegetation_fire":true}},{"type":"Feature","geometry":{"type":"Point","coordinates":[-114.91127,36.35631]},"properties":{"acq_utc":"2026-10-10T09:37:00Z","satellite":"N","instrument":"VIIRS","source":"VIIRS_SNPP_NRT","confidence":"n","confidence_label":"nominal","frp_mw":2.25,"daynight":"N","is_vegetation_fire":true}},{"type":"Feature","geometry":{"type":"Point","coordinates":[-114.85155,32.62951]},"properties":{"acq_utc":"2026-10-10T09:37:00Z","satellite":"N","instrument":"VIIRS","source":"VIIRS_SNPP_NRT","confidence":"n","confidence_label":"nominal","frp_mw":0.78,"daynight":"N","is_vegetation_fire":true}},{"type":"Feature","geometry":{"type":"Point","coordinates":[-114.93661,32.54131]},"properties":{"acq_utc":"2026-10-10T09:37:00Z","satellite":"N","instrument":"VIIRS","source":"VIIRS_SNPP_NRT","confidence":"n","confidence_label":"nominal","frp_mw":2.3,"daynight":"N","is_vegetation_fire":true}},{"type":"Feature","geometry":{"type":"Point","coordinates":[-114.93253,32.54068]},"properties":{"acq_utc":"2026-10-10T09:37:00Z","satellite":"N","instrument":"VIIRS","source":"VIIRS_SNPP_NRT","confidence":"n","confidence_label":"nominal","frp_mw":2.03,"daynight":"N","is_vegetation_fire":true}},{"type":"Feature","geometry":{"type":"Point","coordinates":[-114.93732,32.538]},"properties":{"acq_utc":"2026-10-10T09:37:00Z","satellite":"N","instrument":"VIIRS","source":"VIIRS_SNPP_NRT","confidence":"n","confidence_label":"nominal","frp_mw":2.3,"daynight":"N","is_vegetation_fire":true}},{"type":"Feature","geometry":{"type":"Point","coordinates":[-114.93324,32.53738]},"properties":{"acq_utc":"2026-10-10T09:37:00Z","satellite":"N","instrument":"VIIRS","source":"VIIRS_SNPP_NRT","confidence":"n","confidence_label":"nominal","frp_mw":2.03,"daynight":"N","is_vegetation_fire":true}},{"type":"Feature","geometry":{"type":"Point","coordinates":[-114.25449,40.82346]},"properties":{"acq_utc":"2026-10-10T09:34:00Z","satellite":"N","instrument":"VIIRS","source":"VIIRS_SNPP_NRT","confidence":"n","confidence_label":"nominal","frp_mw":1.1,"daynight":"N","is_vegetation_fire":true}},{"type":"Feature","geometry":{"type":"Point","coordinates":[-114.2552,40.82005]},"properties":{"acq_utc":"2026-10-10T09:34:00Z","satellite":"N","instrument":"VIIRS","source":"VIIRS_SNPP_NRT","confidence":"n","confidence_label":"nominal","frp_mw":1.34,"daynight":"N","is_vegetation_fire":true}},{"type":"Feature","geometry":{"type":"Point","coordinates":[-118.75046,34.82214]},"properties":{"acq_utc":"2026-10-10T09:02:00Z","satellite":"N21","instrument":"VIIRS","source":"VIIRS_NOAA21_NRT","confidence":"n","confidence_label":"nominal","frp_mw":0.83,"daynight":"N","is_vegetation_fire":true}},{"type":"Feature","geometry":{"type":"Point","coordinates":[-118.75188,34.81832]},"properties":{"acq_utc":"2026-10-10T09:02:00Z","satellite":"N21","instrument":"VIIRS","source":"VIIRS_NOAA21_NRT","confidence":"n","confidence_label":"nominal","frp_mw":0.95,"daynight":"N","is_vegetation_fire":true}},{"type":"Feature","geometry":{"type":"Point","coordinates":[-118.5193,34.33619]},"properties":{"acq_utc":"2026-10-10T09:02:00Z","satellite":"N21","instrument":"VIIRS","source":"VIIRS_NOAA21_NRT","confidence":"n","confidence_label":"nominal","frp_mw":1.47,"daynight":"N","is_vegetation_fire":true}},{"type":"Feature","geometry":{"type":"Point","coordinates":[-118.19313,34.15519]},"properties":{"acq_utc":"2026-10-10T09:02:00Z","satellite":"N21","instrument":"VIIRS","source":"VIIRS_NOAA21_NRT","confidence":"n","confidence_label":"nominal","frp_mw":0.53,"daynight":"N","is_vegetation_fire":true}},{"type":"Feature","geometry":{"type":"Point","coordinates":[-114.8537,32.62808]},"properties":{"acq_utc":"2026-10-10T09:02:00Z","satellite":"N21","instrument":"VIIRS","source":"VIIRS_NOAA21_NRT","confidence":"n","confidence_label":"nominal","frp_mw":1.08,"daynight":"N","is_vegetation_fire":true}},{"type":"Feature","geometry":{"type":"Point","coordinates":[-114.93796,32.53803]},"properties":{"acq_utc":"2026-10-10T09:02:00Z","satellite":"N21","instrument":"VIIRS","source":"VIIRS_NOAA21_NRT","confidence":"n","confidence_label":"nominal","frp_mw":14.29,"daynight":"N","is_vegetation_fire":true}},{"type":"Feature","geometry":{"type":"Point","coordinates":[-114.93352,32.53756]},"properties":{"acq_utc":"2026-10-10T09:02:00Z","satellite":"N21","instrument":"VIIRS","source":"VIIRS_NOAA21_NRT","confidence":"n","confidence_label":"nominal","frp_mw":14.29,"daynight":"N","is_vegetation_fire":true}},{"type":"Feature","geometry":{"type":"Point","coordinates":[-119.26461,39.61704]},"properties":{"acq_utc":"2026-10-10T09:00:00Z","satellite":"N21","instrument":"VIIRS","source":"VIIRS_NOAA21_NRT","confidence":"n","confidence_label":"nominal","frp_mw":0.92,"daynight":"N","is_vegetation_fire":true}},{"type":"Feature","geometry":{"type":"Point","coordinates":[-115.04963,36.08495]},"properties":{"acq_utc":"2026-10-10T09:00:00Z","satellite":"N21","instrument":"VIIRS","source":"VIIRS_NOAA21_NRT","confidence":"n","confidence_label":"nominal","frp_mw":1.53,"daynight":"N","is_vegetation_fire":true}},{"type":"Feature","geometry":{"type":"Point","coordinates":[-118.40319,35.69334]},"properties":{"acq_utc":"2026-10-10T09:00:00Z","satellite":"N21","instrument":"VIIRS","source":"VIIRS_NOAA21_NRT","confidence":"n","confidence_label":"nominal","frp_mw":0.72,"daynight":"N","is_vegetation_fire":true}}],"properties":{"disclaimer":"UNVERIFIED NASA FIRMS satellite thermal detections. NOT confirmed fire incidents and NOT an official feed. Subject to false positives and detection lag. Official incident information: https://www.fire.ca.gov/incidents/ . In an emergency call 911.","generated_utc":"2026-10-10T14:45:58Z"}}